{
  "type": "FeatureCollection",
  "features": [
    {
      "type": "Feature",
      "properties": {
        "norad_id": 57400,
        "name": "TIANMU-1 08",
        "group": "weather",
        "lat": 55.23969065564312,
        "lon": -120.52973886194883,
        "alt_km": 474.7754118400926,
        "timestamp": "2025-12-25T11:37:44.065240+00:00",
        "meta_object_name": "TIANMU-1 08",
        "meta_object_id": "2023-101B",
        "meta_epoch": "2025-12-25T04:48:10.266048",
        "meta_mean_motion": 15.28228168,
        "meta_eccentricity": 0.000693,
        "meta_inclination": 97.2844,
        "meta_ra_of_asc_node": 48.5707,
        "meta_arg_of_pericenter": 48.5647,
        "meta_mean_anomaly": 311.6187,
        "meta_ephemeris_type": 0,
        "meta_classification_type": "U",
        "meta_norad_cat_id": 57400,
        "meta_element_set_no": 999,
        "meta_rev_at_epoch": 13505,
        "meta_bstar": 0.00028694,
        "meta_mean_motion_dot": 7.826e-05,
        "meta_mean_motion_ddot": 0,
        "tle_line1": "1 57400U 23101B   25359.20011882  .00007826  00000+0  28694-3 0  9993",
        "tle_line2": "2 57400  97.2844  48.5707 0006930  48.5647 311.6187 15.28228168135059"
      },
      "geometry": {
        "type": "Point",
        "coordinates": [
          -120.52973886194883,
          55.23969065564312
        ]
      }
    },
    {
      "type": "Feature",
      "properties": {
        "norad_id": 57401,
        "name": "TIANMU-1 09",
        "group": "weather",
        "lat": -18.079411485060277,
        "lon": -134.0364235664128,
        "alt_km": 489.7840430206297,
        "timestamp": "2025-12-25T11:37:44.065252+00:00",
        "meta_object_name": "TIANMU-1 09",
        "meta_object_id": "2023-101C",
        "meta_epoch": "2025-12-25T04:28:45.810048",
        "meta_mean_motion": 15.28263298,
        "meta_eccentricity": 0.0006211,
        "meta_inclination": 97.2801,
        "meta_ra_of_asc_node": 48.0643,
        "meta_arg_of_pericenter": 49.5415,
        "meta_mean_anomaly": 310.6366,
        "meta_ephemeris_type": 0,
        "meta_classification_type": "U",
        "meta_norad_cat_id": 57401,
        "meta_element_set_no": 999,
        "meta_rev_at_epoch": 13505,
        "meta_bstar": 0.00029267,
        "meta_mean_motion_dot": 7.991e-05,
        "meta_mean_motion_ddot": 0,
        "tle_line1": "1 57401U 23101C   25359.18664132  .00007991  00000+0  29267-3 0  9993",
        "tle_line2": "2 57401  97.2801  48.0643 0006211  49.5415 310.6366 15.28263298135054"
      },
      "geometry": {
        "type": "Point",
        "coordinates": [
          -134.0364235664128,
          -18.079411485060277
        ]
      }
    },
    {
      "type": "Feature",
      "properties": {
        "norad_id": 57402,
        "name": "TIANMU-1 10",
        "group": "weather",
        "lat": 9.363875777187468,
        "lon": 48.00957731172526,
        "alt_km": 478.4323634970078,
        "timestamp": "2025-12-25T11:37:44.065262+00:00",
        "meta_object_name": "TIANMU-1 10",
        "meta_object_id": "2023-101D",
        "meta_epoch": "2025-12-25T03:43:50.223360",
        "meta_mean_motion": 15.28254727,
        "meta_eccentricity": 0.0007925,
        "meta_inclination": 97.2882,
        "meta_ra_of_asc_node": 48.8969,
        "meta_arg_of_pericenter": 47.0454,
        "meta_mean_anomaly": 313.1449,
        "meta_ephemeris_type": 0,
        "meta_classification_type": "U",
        "meta_norad_cat_id": 57402,
        "meta_element_set_no": 999,
        "meta_rev_at_epoch": 13504,
        "meta_bstar": 0.00031362,
        "meta_mean_motion_dot": 8.569e-05,
        "meta_mean_motion_ddot": 0,
        "tle_line1": "1 57402U 23101D   25359.15544240  .00008569  00000+0  31362-3 0  9999",
        "tle_line2": "2 57402  97.2882  48.8969 0007925  47.0454 313.1449 15.28254727135048"
      },
      "geometry": {
        "type": "Point",
        "coordinates": [
          48.00957731172526,
          9.363875777187468
        ]
      }
    },
    {
      "type": "Feature",
      "properties": {
        "norad_id": 57490,
        "name": "FENGYUN 3F",
        "group": "weather",
        "lat": -9.846011702429736,
        "lon": 69.09530817980033,
        "alt_km": 830.1646601878028,
        "timestamp": "2025-12-25T11:37:44.065272+00:00",
        "meta_object_name": "FENGYUN 3F",
        "meta_object_id": "2023-111A",
        "meta_epoch": "2025-12-25T04:54:39.035808",
        "meta_mean_motion": 14.19896763,
        "meta_eccentricity": 8.33e-05,
        "meta_inclination": 98.7067,
        "meta_ra_of_asc_node": 67.296,
        "meta_arg_of_pericenter": 117.6209,
        "meta_mean_anomaly": 242.5052,
        "meta_ephemeris_type": 0,
        "meta_classification_type": "U",
        "meta_norad_cat_id": 57490,
        "meta_element_set_no": 999,
        "meta_rev_at_epoch": 12417,
        "meta_bstar": 5.5793e-05,
        "meta_mean_motion_dot": 7.5e-07,
        "meta_mean_motion_ddot": 0,
        "tle_line1": "1 57490U 23111A   25359.20461847  .00000075  00000+0  55793-4 0  9993",
        "tle_line2": "2 57490  98.7067  67.2960 0000833 117.6209 242.5052 14.19896763124173"
      },
      "geometry": {
        "type": "Point",
        "coordinates": [
          69.09530817980033,
          -9.846011702429736
        ]
      }
    },
    {
      "type": "Feature",
      "properties": {
        "norad_id": 58584,
        "name": "ARKTIKA-M 2",
        "group": "weather",
        "lat": 62.28566614670025,
        "lon": -112.4749667190788,
        "alt_km": 37968.28253490857,
        "timestamp": "2025-12-25T11:37:44.065286+00:00",
        "meta_object_name": "ARKTIKA-M 2",
        "meta_object_id": "2023-198A",
        "meta_epoch": "2025-12-24T19:00:30.507264",
        "meta_mean_motion": 2.00602347,
        "meta_eccentricity": 0.6865959,
        "meta_inclination": 63.2255,
        "meta_ra_of_asc_node": 173.58,
        "meta_arg_of_pericenter": 268.0557,
        "meta_mean_anomaly": 18.8416,
        "meta_ephemeris_type": 0,
        "meta_classification_type": "U",
        "meta_norad_cat_id": 58584,
        "meta_element_set_no": 999,
        "meta_rev_at_epoch": 1482,
        "meta_bstar": 0,
        "meta_mean_motion_dot": 2.24e-06,
        "meta_mean_motion_ddot": 0,
        "tle_line1": "1 58584U 23198A   25358.79201976  .00000224  00000+0  00000+0 0  9993",
        "tle_line2": "2 58584  63.2255 173.5800 6865959 268.0557  18.8416  2.00602347 14827"
      },
      "geometry": {
        "type": "Point",
        "coordinates": [
          -112.4749667190788,
          62.28566614670025
        ]
      }
    },
    {
      "type": "Feature",
      "properties": {
        "norad_id": 58645,
        "name": "TIANMU-1 11",
        "group": "weather",
        "lat": 28.530117317697773,
        "lon": 14.85449901373581,
        "alt_km": 493.8667872626329,
        "timestamp": "2025-12-25T11:37:44.065297+00:00",
        "meta_object_name": "TIANMU-1 11",
        "meta_object_id": "2023-205A",
        "meta_epoch": "2025-12-25T03:37:39.856800",
        "meta_mean_motion": 15.24745652,
        "meta_eccentricity": 0.0007567,
        "meta_inclination": 97.3597,
        "meta_ra_of_asc_node": 18.5562,
        "meta_arg_of_pericenter": 257.1867,
        "meta_mean_anomaly": 102.8526,
        "meta_ephemeris_type": 0,
        "meta_classification_type": "U",
        "meta_norad_cat_id": 58645,
        "meta_element_set_no": 999,
        "meta_rev_at_epoch": 11098,
        "meta_bstar": 0.00027618,
        "meta_mean_motion_dot": 6.774e-05,
        "meta_mean_motion_ddot": 0,
        "tle_line1": "1 58645U 23205A   25359.15115575  .00006774  00000+0  27618-3 0  9994",
        "tle_line2": "2 58645  97.3597  18.5562 0007567 257.1867 102.8526 15.24745652110982"
      },
      "geometry": {
        "type": "Point",
        "coordinates": [
          14.85449901373581,
          28.530117317697773
        ]
      }
    },
    {
      "type": "Feature",
      "properties": {
        "norad_id": 58646,
        "name": "TIANMU-1 12",
        "group": "weather",
        "lat": -55.1515538017868,
        "lon": -172.011385285526,
        "alt_km": 494.83994065682964,
        "timestamp": "2025-12-25T11:37:44.065306+00:00",
        "meta_object_name": "TIANMU-1 12",
        "meta_object_id": "2023-205B",
        "meta_epoch": "2025-12-25T04:17:49.199424",
        "meta_mean_motion": 15.24633608,
        "meta_eccentricity": 0.0005997,
        "meta_inclination": 97.3585,
        "meta_ra_of_asc_node": 18.3849,
        "meta_arg_of_pericenter": 234.8181,
        "meta_mean_anomaly": 125.2495,
        "meta_ephemeris_type": 0,
        "meta_classification_type": "U",
        "meta_norad_cat_id": 58646,
        "meta_element_set_no": 999,
        "meta_rev_at_epoch": 11097,
        "meta_bstar": 0.00026701,
        "meta_mean_motion_dot": 6.523e-05,
        "meta_mean_motion_ddot": 0,
        "tle_line1": "1 58646U 23205B   25359.17904166  .00006523  00000+0  26701-3 0  9993",
        "tle_line2": "2 58646  97.3585  18.3849 0005997 234.8181 125.2495 15.24633608110972"
      },
      "geometry": {
        "type": "Point",
        "coordinates": [
          -172.011385285526,
          -55.1515538017868
        ]
      }
    }
  ]
}